     2              NAVIGATION DATA     GPS                 RINEX VERSION / TYPE
srx v1.3 (5/19/93)  STARR               93/12/15 17:03:23   PGM / RUN BY / DATE
bird                                                        MARKER NAME
 -3454635.4756 -1274970.4114  5190802.1961                  APPROX POSITION XYZ
                                                            END OF HEADER
27 93 07 06 16 00  0.0 3.106566146016D-05 1.250555214938D-12 0.000000000000D+00
    1.300000000000D+01-1.512500000000D+01 4.783056376354D-09 3.063571856008D-01
   -9.406358003616D-07 1.060470112134D-02 9.121373295784D-06 5.153666725159D+03
    2.304000000000D+05-1.490116119385D-08-1.809089159711D-01-8.940696716309D-08
    9.526506995998D-01 1.999375000000D+02 2.237992798435D+00-8.229985669080D-09
   -4.464471677451D-10 1.000000000000D+00 7.040000000000D+02 0.000000000000D+00
    3.200000000000D+01 0.000000000000D+00 1.396983861923D-09 1.300000000000D+01
    2.232180000000D+05 0.000000000000D+00 0.000000000000D+00 0.000000000000D+00
28 93 07 06 16 00  0.0 1.827022060752D-05 2.387423592154D-12 0.000000000000D+00
    7.000000000000D+00 1.684375000000D+01 4.743054710124D-09-2.336726918513D-01
    8.586794137955D-07 6.394391879439D-03 1.784414052963D-06 5.153684719086D+03
    2.304000000000D+05 5.029141902924D-08 1.914816774296D+00-3.725290298462D-08
    9.671866413087D-01 3.475000000000D+02 2.801134857802D+00-8.465709773650D-09
    8.178912113090D-11 1.000000000000D+00 7.040000000000D+02 0.000000000000D+00
    3.200000000000D+01 0.000000000000D+00 1.396983861923D-09 7.000000000000D+00
    2.241180000000D+05 0.000000000000D+00 0.000000000000D+00 0.000000000000D+00
31 93 07 06 16 00  0.0 2.187537029386D-05 2.842170943040D-12 0.000000000000D+00
    9.300000000000D+01 1.453125000000D+01 4.916990526677D-09 1.308609826978D+00
    9.369105100632D-07 4.291534190997D-03 1.914799213409D-06 5.153704160690D+03
    2.304000000000D+05-1.676380634308D-08 1.913224083680D+00 1.080334186554D-07
    9.586339394543D-01 3.427187500000D+02 6.654425338040D-01-8.547141737046D-09
    4.643050544549D-12 1.000000000000D+00 7.040000000000D+02 0.000000000000D+00
    3.200000000000D+01 0.000000000000D+00 1.396983861923D-09 9.300000000000D+01
    2.232180000000D+05 0.000000000000D+00 0.000000000000D+00 0.000000000000D+00
02 93 07 06 16 51 44.0-3.412272781134D-05-1.705302565824D-12 0.000000000000D+00
    1.990000000000D+02 8.865625000000D+01 4.466614623856D-09-1.671766151428D+00
    4.576519131660D-06 1.192085165530D-02 8.681789040565D-06 5.153709342957D+03
    2.335040000000D+05 2.328306436539D-07 8.472512980002D-01-9.313225746155D-08
    9.567086090623D-01 2.093750000000D+02-2.787479183160D+00-7.992118618106D-09
    1.971510692762D-10 1.000000000000D+00 7.040000000000D+02 0.000000000000D+00
    3.200000000000D+01 0.000000000000D+00 9.313225746155D-10 1.990000000000D+02
    2.304180000000D+05 0.000000000000D+00 0.000000000000D+00 0.000000000000D+00
26 93 07 06 16 51 44.0-2.842862159014D-05-1.705302565824D-12 0.000000000000D+00
    9.000000000000D+01 1.903125000000D+01 4.952706300097D-09-2.530544671892D+00
    1.296401023865D-06 8.138031116687D-03 4.811212420464D-06 5.153766372681D+03
    2.335040000000D+05 2.793967723846D-08-1.229666615659D+00 1.881271600723D-07
    9.585445741776D-01 2.862812500000D+02-1.257529634277D+00-8.224985460802D-09
    1.792931825664D-10 1.000000000000D+00 7.040000000000D+02 0.000000000000D+00
    3.200000000000D+01 0.000000000000D+00 1.396983861923D-09 9.000000000000D+01
    2.322180000000D+05 0.000000000000D+00 0.000000000000D+00 0.000000000000D+00
27 93 07 06 16 51 44.0 3.105588257313D-05 1.136868377216D-12 0.000000000000D+00
    3.800000000000D+01-1.856250000000D+01 4.655551065246D-09 7.590182672203D-01
   -1.080334186554D-06 1.060573197901D-02 8.450821042061D-06 5.153669389725D+03
    2.335040000000D+05 2.179294824600D-07-1.809347759740D-01-5.401670932770D-08
    9.526503543511D-01 2.092812500000D+02 2.238079062325D+00-8.001404719195D-09
   -4.518045337580D-10 1.000000000000D+00 7.040000000000D+02 0.000000000000D+00
    3.200000000000D+01 0.000000000000D+00 1.396983861923D-09 3.800000000000D+01
    2.304780000000D+05 0.000000000000D+00 0.000000000000D+00 0.000000000000D+00
12 93 07 06 17 00  0.0-3.669708967209D-04-7.889866537880D-11 0.000000000000D+00
    1.280000000000D+02 2.471875000000D+01 1.642211261834D-09 1.072675898262D+00
    1.305714249611D-06 1.342279696837D-02 1.166574656963D-05 5.153629077911D+03
    2.340000000000D+05 2.253800630569D-07 1.332943557192D-01 1.192092895508D-07
    1.092299115648D+00 2.208750000000D+02-2.545248628279D-01-6.297405169345D-09
   -4.800199947595D-10 1.000000000000D+00 7.040000000000D+02 0.000000000000D+00
    4.000000000000D+00 0.000000000000D+00 2.793967723846D-09 1.280000000000D+02
    2.291580000000D+05 0.000000000000D+00 0.000000000000D+00 0.000000000000D+00
01 93 07 06 18 00  0.0-4.271231591702D-05-2.501110429876D-12 0.000000000000D+00
    1.100000000000D+02 1.415625000000D+01 4.929491047374D-09 2.348320330705D+00
    7.878988981247D-07 3.896485315636D-03 5.071982741356D-06 5.153597492218D+03
    2.376000000000D+05 1.676380634308D-08-1.207152231810D+00 7.450580596924D-09
    9.557043465221D-01 2.783437500000D+02-1.138104983967D+00-8.172126116141D-09
    1.321483616526D-10 1.000000000000D+00 7.040000000000D+02 0.000000000000D+00
    3.200000000000D+01 0.000000000000D+00 1.396983861923D-09 1.100000000000D+02
    2.365080000000D+05 0.000000000000D+00 0.000000000000D+00 0.000000000000D+00
07 93 07 06 18 00  0.0 1.035677269101D-05 2.273736754432D-12 0.000000000000D+00
    1.690000000000D+02 1.462500000000D+01 4.881631910992D-09-2.140498097663D+00
    8.866190910339D-07 5.590837914497D-03 1.613050699234D-06 5.153541683197D+03
    2.376000000000D+05 5.587935447693D-08 1.909550465242D+00-1.080334186554D-07
    9.592577087054D-01 3.474687500000D+02-2.870425447439D+00-8.445708940535D-09
    9.428964182777D-11 1.000000000000D+00 7.040000000000D+02 0.000000000000D+00
    3.200000000000D+01 0.000000000000D+00 1.396983861923D-09 1.690000000000D+02
    2.304180000000D+05 0.000000000000D+00 0.000000000000D+00 0.000000000000D+00
12 93 07 06 18 00  0.0-3.672549501061D-04-7.889866537880D-11 0.000000000000D+00
    1.290000000000D+02 2.728125000000D+01 1.591137705844D-09 1.597740075487D+00
    1.339241862297D-06 1.342289068270D-02 1.168809831142D-05 5.153629823685D+03
    2.376000000000D+05 1.434236764908D-07 1.332719730726D-01 1.229345798492D-07
    1.092297363072D+00 2.190312500000D+02-2.544956264101D-01-6.268118235141D-09
   -5.225217651289D-10 1.000000000000D+00 7.040000000000D+02 0.000000000000D+00
    4.000000000000D+00 0.000000000000D+00 2.793967723846D-09 1.290000000000D+02
    2.304180000000D+05 0.000000000000D+00 0.000000000000D+00 0.000000000000D+00
13 93 07 06 18 00  0.0 6.444924511015D-04 1.023181539495D-12 0.000000000000D+00
    9.000000000000D+01-4.562500000000D+01 1.602566753338D-09 3.103826169653D+00
   -2.354383468628D-06 4.835690604523D-03 3.976747393608D-06 5.153687246323D+03
    2.376000000000D+05-3.352761268616D-08 2.267471864619D+00-9.126961231232D-08
    1.112738518437D+00 3.755312500000D+02-2.526723345541D+00-6.519557280015D-09
   -2.146517982518D-10 1.000000000000D+00 7.040000000000D+02 0.000000000000D+00
    4.000000000000D+00 0.000000000000D+00 2.793967723846D-09 9.000000000000D+01
    2.321280000000D+05 0.000000000000D+00 0.000000000000D+00 0.000000000000D+00
20 93 07 06 18 00  0.0 2.196198329329D-05 5.684341886081D-13 0.000000000000D+00
    1.350000000000D+02 1.039062500000D+02 4.363753196408D-09-1.439280241628D+00
    5.424022674561D-06 4.483327036723D-03 9.700655937195D-06 5.153746383667D+03
    2.376000000000D+05-1.117587089539D-08 8.543409325577D-01 1.005828380585D-07
    9.625682484312D-01 1.961562500000D+02 1.528386590613D+00-7.976046520067D-09
    1.446488823494D-10 1.000000000000D+00 7.040000000000D+02 0.000000000000D+00
    4.000000000000D+00 0.000000000000D+00 3.725290298462D-09 1.350000000000D+02
    2.374380000000D+05 0.000000000000D+00 0.000000000000D+00 0.000000000000D+00
21 93 07 06 18 00  0.0-2.118060365319D-05-1.250555214938D-12 0.000000000000D+00
    1.600000000000D+02-8.937500000000D+00 4.450185368083D-09-2.849126249659D-01
   -6.016343832016D-07 1.054746320006D-02 1.108832657337D-05 5.153679090500D+03
    2.376000000000D+05 1.136213541031D-07-2.271932813864D+00-2.216547727585D-07
    9.546703677271D-01 1.655000000000D+02 2.638366279620D+00-7.997118826385D-09
    3.753727786401D-10 1.000000000000D+00 7.040000000000D+02 0.000000000000D+00
    3.200000000000D+01 0.000000000000D+00 6.053596735001D-09 1.600000000000D+02
    2.304180000000D+05 0.000000000000D+00 0.000000000000D+00 0.000000000000D+00
23 93 07 06 18 00  0.0 4.640314728022D-06 0.000000000000D+00 0.000000000000D+00
    2.220000000000D+02 1.218750000000D+00 4.424470011221D-09-1.005894540825D+00
    3.166496753693D-08 7.212731870823D-03 1.101382076740D-05 5.153737703323D+03
    2.376000000000D+05 2.179294824600D-07-2.240224510686D+00 1.043081283569D-07
    9.583744485083D-01 1.666250000000D+02-2.432281152079D+00-7.898543291746D-09
    3.821587755898D-10 1.000000000000D+00 7.040000000000D+02 0.000000000000D+00
    3.200000000000D+01 0.000000000000D+00 1.396983861923D-09 2.220000000000D+02
    2.304180000000D+05 0.000000000000D+00 0.000000000000D+00 0.000000000000D+00
26 93 07 06 18 00  0.0-2.841465175152D-05-1.705302565824D-12 0.000000000000D+00
    6.600000000000D+01 1.903125000000D+01 4.952706300097D-09-1.933136966160D+00
    1.296401023865D-06 8.138037170283D-03 4.811212420464D-06 5.153766393661D+03
    2.376000000000D+05 2.793967723846D-08-1.229700376882D+00 1.881271600723D-07
    9.585453085625D-01 2.862812500000D+02-1.257531774526D+00-8.224985460802D-09
    1.792931825664D-10 1.000000000000D+00 7.040000000000D+02 0.000000000000D+00
    3.200000000000D+01 0.000000000000D+00 1.396983861923D-09 6.600000000000D+01
    2.304180000000D+05 0.000000000000D+00 0.000000000000D+00 0.000000000000D+00
